OBJECT_NAME,OBJECT_ID,EPOCH,MEAN_MOTION,ECCENTRICITY,INCLINATION,RA_OF_ASC_NODE,ARG_OF_PERICENTER,MEAN_ANOMALY,EPHEMERIS_TYPE,CLASSIFICATION_TYPE,NORAD_CAT_ID,ELEMENT_SET_NO,REV_AT_EPOCH,BSTAR,MEAN_MOTION_DOT,MEAN_MOTION_DDOT
STARLINK-5410,2022-175BB,2026-07-11T18:00:02.000160,15.28662357,.00018249,53.1574,190.3404,155.5751,123.5279,0,U,54807,999,556,.54749004E-4,.1193E-4,0
STARLINK-5413,2022-175BC,2026-07-11T09:25:33.484224,15.08824929,.00010647,53.1593,178.7227,75.5639,284.5471,0,U,54808,999,19901,-.59095055E-4,-.1228E-4,0
STARLINK-5414,2022-175BD,2026-07-10T08:00:03.000384,15.34387284,.00017397,53.1603,194.7633,66.9071,351.6665,0,U,54809,999,582,.12283221E-3,.3774E-4,0
STARLINK-5408,2022-175BE,2026-07-11T03:59:54.714336,15.09500466,.00016789,53.1616,189.3356,91.3739,268.7445,0,U,54810,999,19884,.51732788E-2,.84556E-3,0
STARLINK-5424,2022-175BF,2026-07-11T18:00:02.000160,15.12040679,.00018819,53.1596,186.9686,104.1043,49.4961,0,U,54811,999,567,.29245957E-2,.50914E-3,0
STARLINK-5382,2022-177A,2026-07-11T06:07:11.756352,15.27590695,.00011604,43.0019,158.0192,277.2781,82.7939,0,U,54820,999,19582,.49030221E-4,.1088E-4,0
STARLINK-5385,2022-177B,2026-07-11T07:58:00.079968,15.27588694,.00011647,43.0014,157.7314,267.3092,92.7626,0,U,54821,999,19583,.27928998E-4,.507E-5,0
STARLINK-5101,2022-177C,2026-07-10T22:53:25.180224,15.27587164,.00006013,43.0009,160.0484,291.9777,68.1011,0,U,54822,999,19577,.14780712E-4,.145E-5,0
STARLINK-5106,2022-177D,2026-07-11T06:12:44.273664,15.27578016,.00009034,43.0005,158.0413,14.7359,345.3519,0,U,54823,999,19582,.7545463E-5,-.54E-6,0
STARLINK-4643,2022-177E,2026-07-11T06:18:17.527104,15.27588544,.00013602,43.0031,158.0668,273.0487,87.0209,0,U,54824,999,19582,.24703514E-4,.418E-5,0
STARLINK-5107,2022-177G,2026-07-11T08:12:47.961792,15.27575532,.00008532,42.9984,157.7903,53.6470,306.4460,0,U,54826,999,19583,.24840689E-4,.422E-5,0
STARLINK-5383,2022-177H,2026-07-11T08:23:53.780928,15.27599872,.00002209,42.9979,157.8597,140.3206,219.7662,0,U,54827,999,19583,-.27661329E-3,-.787E-4,0
STARLINK-5381,2022-177J,2026-07-11T06:55:17.672736,15.27573852,.00009545,43.0013,158.2539,285.8714,74.2033,0,U,54828,999,19582,-.4815187E-5,-.394E-5,0
STARLINK-5394,2022-177L,2026-07-11T08:44:14.224992,15.27620234,.00016177,43.0042,157.9618,255.8819,104.1853,0,U,54830,999,19583,-.2549267E-3,-.7279E-4,0
STARLINK-5395,2022-177M,2026-07-11T06:29:23.714304,15.27589927,.00009199,43.0001,158.1217,277.7275,82.3472,0,U,54831,999,19582,.15116901E-4,.154E-5,0
STARLINK-5386,2022-177Q,2026-07-11T08:49:48.469440,15.27573454,.00014903,43.0025,157.9908,256.2599,103.8087,0,U,54834,999,19584,-.5885988E-5,-.424E-5,0
STARLINK-5389,2022-177R,2026-07-11T08:35:00.103776,15.27578001,.00011002,43.0014,157.9192,287.0216,73.0515,0,U,54835,999,19583,-.1400171E-4,-.647E-5,0
STARLINK-5372,2022-177U,2026-07-11T08:28:18.567552,15.27576258,.00014554,43.0046,154.4762,279.9370,80.1318,0,U,54838,999,19587,.21622861E-4,.333E-5,0
STARLINK-5368,2022-177W,2026-07-11T08:19:03.276480,15.27592293,.00021438,43.0040,154.4219,288.5455,71.5164,0,U,54840,999,19587,.5932515E-4,.1371E-4,0
STARLINK-4659,2022-177X,2026-07-10T23:08:55.456800,15.27575346,.00015113,43.0031,156.7201,262.4473,97.6207,0,U,54841,999,19581,-.17999158E-4,-.757E-5,0
STARLINK-5387,2022-177Y,2026-07-11T06:33:48.123360,15.27584382,.00013217,43.0051,154.7303,268.8373,91.2328,0,U,54842,999,19586,.64520652E-4,.1514E-4,0
STARLINK-5304,2022-177Z,2026-07-11T07:03:24.584256,15.27589794,.00018261,43.0040,154.8917,282.0473,78.0174,0,U,54843,999,19586,.18536692E-4,.248E-5,0
STARLINK-5388,2022-177AA,2026-07-11T09:06:13.327488,15.27585053,.00014723,43.0021,157.1965,261.5136,98.5549,0,U,54844,999,19584,.45558047E-4,.992E-5,0
STARLINK-5082,2022-177AB,2026-07-11T08:13:30.517248,15.27584189,.00020372,43.0056,154.3917,267.6689,92.3930,0,U,54845,999,19587,-.17670457E-4,-.749E-5,0
STARLINK-5360,2022-177AC,2026-07-10T08:31:53.356224,15.27581656,.00014626,43.0031,159.8821,272.3089,87.7595,0,U,54846,999,19572,.1756954E-5,-.214E-5,0
STARLINK-5061,2022-177AD,2026-07-11T05:25:34.856832,15.27573408,.0001637,43.0036,132.6205,271.6031,88.4633,0,U,54847,999,19611,-.1614982E-5,-.307E-5,0
STARLINK-5432,2022-177AE,2026-07-11T05:32:58.561440,15.27580711,.00010785,43.0017,143.9798,271.5318,88.5410,0,U,54848,999,19598,.52827173E-4,.1192E-4,0
STARLINK-5087,2022-177AG,2026-07-11T06:31:58.860192,15.27583856,.0000654,42.9999,143.4298,305.6404,54.4387,0,U,54850,999,19599,-.23812041E-4,-.917E-5,0
STARLINK-5084,2022-177AH,2026-07-10T19:27:19.559520,15.27576966,.00004609,42.9989,145.9854,274.1834,85.8965,0,U,54851,999,19592,-.43747982E-4,-.1465E-4,0
STARLINK-5418,2022-177AJ,2026-07-10T06:44:48.528672,15.27577531,.00021216,43.0046,148.8881,262.7366,97.3245,0,U,54852,999,19584,.2595239E-4,.452E-5,0
