[ {"name": "STARLINK-5410", "line1": "1 54807U 22175BB  26192.75002315  .00001193  00000+0  54749-4 0  9990", "line2": "2 54807  53.1574 190.3404 0001824 155.5751 123.5279 15.28662357  5566"}, {"name": "STARLINK-5413", "line1": "1 54808U 22175BC  26192.39274866 -.00001228  00000+0 -59095-4 0  9993", "line2": "2 54808  53.1593 178.7227 0001064  75.5639 284.5471 15.08824929199012"}, {"name": "STARLINK-5414", "line1": "1 54809U 22175BD  26191.33336806  .00003774  00000+0  12283-3 0  9993", "line2": "2 54809  53.1603 194.7633 0001739  66.9071 351.6665 15.34387284  5820"}, {"name": "STARLINK-5408", "line1": "1 54810U 22175BE  26192.16660549  .00084556  00000+0  51733-2 0  9990", "line2": "2 54810  53.1616 189.3356 0001678  91.3739 268.7445 15.09500466198843"}, {"name": "STARLINK-5424", "line1": "1 54811U 22175BF  26192.75002315  .00050914  00000+0  29246-2 0  9992", "line2": "2 54811  53.1596 186.9686 0001881 104.1043  49.4961 15.12040679  5671"}, {"name": "STARLINK-5382", "line1": "1 54820U 22177A   26192.25499718  .00001088  00000+0  49030-4 0  9999", "line2": "2 54820  43.0019 158.0192 0001160 277.2781  82.7939 15.27590695195828"}, {"name": "STARLINK-5385", "line1": "1 54821U 22177B   26192.33194537  .00000507  00000+0  27929-4 0  9998", "line2": "2 54821  43.0014 157.7314 0001164 267.3092  92.7626 15.27588694195836"}, {"name": "STARLINK-5101", "line1": "1 54822U 22177C   26191.95376366  .00000145  00000+0  14781-4 0  9998", "line2": "2 54822  43.0009 160.0484 0000601 291.9777  68.1011 15.27587164195773"}, {"name": "STARLINK-5106", "line1": "1 54823U 22177D   26192.25884576 -.00000054  00000+0  75455-5 0  9996", "line2": "2 54823  43.0005 158.0413 0000903  14.7359 345.3519 15.27578016195826"}, {"name": "STARLINK-4643", "line1": "1 54824U 22177E   26192.26270286  .00000418  00000+0  24704-4 0  9998", "line2": "2 54824  43.0031 158.0668 0001360 273.0487  87.0209 15.27588544195821"}, {"name": "STARLINK-5107", "line1": "1 54826U 22177G   26192.34222178  .00000422  00000+0  24841-4 0  9993", "line2": "2 54826  42.9984 157.7903 0000853  53.6470 306.4460 15.27575532195837"}, {"name": "STARLINK-5383", "line1": "1 54827U 22177H   26192.34992802 -.00007870  00000+0 -27661-3 0  9990", "line2": "2 54827  42.9979 157.8597 0000220 140.3206 219.7662 15.27599872195834"}, {"name": "STARLINK-5381", "line1": "1 54828U 22177J   26192.28839899 -.00000394  00000+0 -48152-5 0  9994", "line2": "2 54828  43.0013 158.2539 0000954 285.8714  74.2033 15.27573852195825"}, {"name": "STARLINK-5394", "line1": "1 54830U 22177L   26192.36405353 -.00007279  00000+0 -25493-3 0  9990", "line2": "2 54830  43.0042 157.9618 0001617 255.8819 104.1853 15.27620234195835"}, {"name": "STARLINK-5395", "line1": "1 54831U 22177M   26192.27041336  .00000154  00000+0  15117-4 0  9994", "line2": "2 54831  43.0001 158.1217 0000919 277.7275  82.3472 15.27589927195828"}, {"name": "STARLINK-5386", "line1": "1 54834U 22177Q   26192.36792210 -.00000424  00000+0 -58860-5 0  9996", "line2": "2 54834  43.0025 157.9908 0001490 256.2599 103.8087 15.27573454195848"}, {"name": "STARLINK-5389", "line1": "1 54835U 22177R   26192.35764009 -.00000647  00000+0 -14002-4 0  9997", "line2": "2 54835  43.0014 157.9192 0001100 287.0216  73.0515 15.27578001195834"}, {"name": "STARLINK-5372", "line1": "1 54838U 22177U   26192.35299268  .00000333  00000+0  21623-4 0  9997", "line2": "2 54838  43.0046 154.4762 0001455 279.9370  80.1318 15.27576258195877"}, {"name": "STARLINK-5368", "line1": "1 54840U 22177W   26192.34656570  .00001371  00000+0  59325-4 0  9995", "line2": "2 54840  43.0040 154.4219 0002143 288.5455  71.5164 15.27592293195876"}, {"name": "STARLINK-4659", "line1": "1 54841U 22177X   26191.96453075 -.00000757  00000+0 -17999-4 0  9998", "line2": "2 54841  43.0031 156.7201 0001511 262.4473  97.6207 15.27575346195813"}, {"name": "STARLINK-5387", "line1": "1 54842U 22177Y   26192.27347365  .00001514  00000+0  64521-4 0  9991", "line2": "2 54842  43.0051 154.7303 0001321 268.8373  91.2328 15.27584382195864"}, {"name": "STARLINK-5304", "line1": "1 54843U 22177Z   26192.29403454  .00000248  00000+0  18537-4 0  9995", "line2": "2 54843  43.0040 154.8917 0001826 282.0473  78.0174 15.27589794195868"}, {"name": "STARLINK-5388", "line1": "1 54844U 22177AA  26192.37932092  .00000992  00000+0  45558-4 0  9999", "line2": "2 54844  43.0021 157.1965 0001472 261.5136  98.5549 15.27585053195847"}, {"name": "STARLINK-5082", "line1": "1 54845U 22177AB  26192.34271432 -.00000749  00000+0 -17670-4 0  9997", "line2": "2 54845  43.0056 154.3917 0002037 267.6689  92.3930 15.27584189195878"}, {"name": "STARLINK-5360", "line1": "1 54846U 22177AC  26191.35547866 -.00000214  00000+0  17570-5 0  9991", "line2": "2 54846  43.0031 159.8821 0001462 272.3089  87.7595 15.27581656195729"}, {"name": "STARLINK-5061", "line1": "1 54847U 22177AD  26192.22609788 -.00000307  00000+0 -16150-5 0  9998", "line2": "2 54847  43.0036 132.6205 0001637 271.6031  88.4633 15.27573408196114"}, {"name": "STARLINK-5432", "line1": "1 54848U 22177AE  26192.23123335  .00001192  00000+0  52827-4 0  9990", "line2": "2 54848  43.0017 143.9798 0001078 271.5318  88.5410 15.27580711195985"}, {"name": "STARLINK-5087", "line1": "1 54850U 22177AG  26192.27220903 -.00000917  00000+0 -23812-4 0  9994", "line2": "2 54850  42.9999 143.4298 0000654 305.6404  54.4387 15.27583856195998"}, {"name": "STARLINK-5084", "line1": "1 54851U 22177AH  26191.81064305 -.00001465  00000+0 -43748-4 0  9995", "line2": "2 54851  42.9989 145.9854 0000460 274.1834  85.8965 15.27576966195922"}, {"name": "STARLINK-5418", "line1": "1 54852U 22177AJ  26191.28111723  .00000452  00000+0  25952-4 0  9994", "line2": "2 54852  43.0046 148.8881 0002121 262.7366  97.3245 15.27577531195849"}]